NORAD_CAT_ID,OBJECT_NAME,OBJECT_TYPE,EPOCH,MEAN_MOTION,ECCENTRICITY,INCLINATION,RA_OF_ASC_NODE,ARG_OF_PERICENTER,MEAN_ANOMALY,BSTAR,MEAN_MOTION_DOT,MEAN_MOTION_DDOT,TLE_LINE0,TLE_LINE1,TLE_LINE2,SEMIMAJOR_AXIS,PERIOD,APOGEE,PERIGEE,DECAYED
55317.0,STARLINK-5265,PAYLOAD,2024-05-21 15:33:54,14.98319442,0.0002723,70.0013,221.1274,253.1632,106.9229,9.8699e-05,1.085e-05,0.0,0 STARLINK-5265,1 55317U 23010BA  24142.64855250  .00001085  00000-0  98699-4 0  9994,2 55317  70.0013 221.1274 0002723 253.1632 106.9229 14.98319442 76220,6950.226,96.108,573.983,570.198,0.0
55317.0,STARLINK-5265,PAYLOAD,2024-05-22 12:23:39,14.98336692,0.0002986,70.0002,218.9368,268.2709,91.8108,-6.9066e-05,-9.17e-06,0.0,0 STARLINK-5265,1 55317U 23010BA  24143.51642510 -.00000917  00000-0 -69066-4 0  9995,2 55317  70.0002 218.9368 0002986 268.2709  91.8108 14.98336692 75176,6950.172,96.107,574.113,569.962,0.0
55317.0,STARLINK-5265,PAYLOAD,2024-05-23 12:25:40,14.98327351,0.0002861,70.0003,216.411,269.1374,90.9457,3.0265e-05,2.68e-06,0.0,0 STARLINK-5265,1 55317U 23010BA  24144.51782640  .00000268  00000-0  30265-4 0  9991,2 55317  70.0003 216.4110 0002861 269.1374  90.9457 14.98327351 75321,6950.201,96.107,574.055,570.078,0.0
55317.0,STARLINK-5265,PAYLOAD,2024-05-23 14:01:48,14.9832811,0.0002867,70.0003,216.2427,269.8716,90.2115,3.7413e-05,3.53e-06,0.0,0 STARLINK-5265,1 55317U 23010BA  24144.58458582  .00000353  00000-0  37413-4 0  9990,2 55317  70.0003 216.2427 0002867 269.8716  90.2115 14.98328110 76513,6950.199,96.107,574.056,570.071,0.0
55317.0,STARLINK-5265,PAYLOAD,2024-05-24 12:27:39,14.98345542,0.0003105,69.9996,213.8851,267.0132,93.0671,0.00015705,1.782e-05,0.0,0 STARLINK-5265,1 55317U 23010BA  24145.51920865  .00001782  00000-0  15705-3 0  9998,2 55317  69.9996 213.8851 0003105 267.0132  93.0671 14.98345542 75473,6950.145,96.106,574.168,569.852,0.0
55317.0,STARLINK-5265,PAYLOAD,2024-05-24 14:03:47,14.98347142,0.0003144,69.9996,213.717,267.1173,92.9626,0.00017001,1.937e-05,0.0,0 STARLINK-5265,1 55317U 23010BA  24145.58596656  .00001937  00000-0  17001-3 0  9995,2 55317  69.9996 213.7170 0003144 267.1173  92.9626 14.98347142 76663,6950.14,96.106,574.19,569.82,0.0
55317.0,STARLINK-5265,PAYLOAD,2024-05-24 22:04:28,14.98337947,0.0003171,69.9999,212.8751,272.0249,88.0547,7.5022e-05,8.02e-06,0.0,0 STARLINK-5265,1 55317U 23010BA  24145.91977211  .00000802  00000-0  75022-4 0  9990,2 55317  69.9999 212.8751 0003171 272.0249  88.0547 14.98337947 76716,6950.168,96.106,574.237,569.829,0.0
55317.0,STARLINK-5265,PAYLOAD,2024-05-25 06:05:08,14.98338932,0.0003325,69.9991,212.0323,273.4994,86.5785,5.4715e-05,5.6e-06,0.0,0 STARLINK-5265,1 55317U 23010BA  24146.25357012  .00000560  00000-0  54715-4 0  9996,2 55317  69.9991 212.0323 0003325 273.4994  86.5785 14.98338932 75584,6950.165,96.106,574.341,569.719,0.0
55317.0,STARLINK-5265,PAYLOAD,2024-05-25 12:29:42,14.98320453,0.0003151,69.9992,211.3599,272.2822,87.7976,-0.00011093,-1.416e-05,0.0,0 STARLINK-5265,1 55317U 23010BA  24146.52063059 -.00001416  00000-0 -11093-3 0  9995,2 55317  69.9992 211.3599 0003151 272.2822  87.7976 14.98320453 75625,6950.222,96.108,574.277,569.897,0.0
55317.0,STARLINK-5265,PAYLOAD,2024-05-25 14:05:50,14.98320382,0.0003081,69.9993,211.1913,272.3971,87.6835,-0.00012284,-1.558e-05,0.0,0 STARLINK-5265,1 55317U 23010BA  24146.58739108 -.00001558  00000-0 -12284-3 0  9996,2 55317  69.9993 211.1913 0003081 272.3971  87.6835 14.98320382 76818,6950.223,96.108,574.229,569.946,0.0
55317.0,STARLINK-5265,PAYLOAD,2024-05-26 04:31:02,14.98330876,0.0003523,69.9983,209.6769,272.3294,87.7461,-0.00014374,-1.808e-05,0.0,0 STARLINK-5265,1 55317U 23010BA  24147.18822613 -.00001808  00000-0 -14374-3 0  9997,2 55317  69.9983 209.6769 0003523 272.3294  87.7461 14.98330876 75721,6950.19,96.107,574.504,569.607,0.0
55317.0,STARLINK-5265,PAYLOAD,2024-05-26 12:31:42,14.98338875,0.0003162,69.999,208.8348,269.8832,90.1965,-0.00011206,-1.43e-05,0.0,0 STARLINK-5265,1 55317U 23010BA  24147.52201959 -.00001430  00000-0 -11206-3 0  9991,2 55317  69.9990 208.8348 0003162 269.8832  90.1965 14.98338875 75770,6950.165,96.106,574.228,569.833,0.0
55317.0,STARLINK-5265,PAYLOAD,2024-05-26 14:07:50,14.98339751,0.0003154,69.9991,208.6667,269.7158,90.364,-9.6009e-05,-1.239e-05,0.0,0 STARLINK-5265,1 55317U 23010BA  24147.58877826 -.00001239  00000-0 -96009-4 0  9991,2 55317  69.9991 208.6667 0003154 269.7158  90.3640 14.98339751 76962,6950.163,96.106,574.22,569.836,0.0
55317.0,STARLINK-5265,PAYLOAD,2024-05-27 04:33:03,14.98316076,0.0002922,69.9997,207.1526,268.7121,91.3703,0.00025685,2.972e-05,0.0,0 STARLINK-5265,1 55317U 23010BA  24148.18962297  .00002972  00000-0  25685-3 0  9999,2 55317  69.9997 207.1526 0002922 268.7121  91.3703 14.98316076 75872,6950.236,96.108,574.132,570.07,0.0
55317.0,STARLINK-5265,PAYLOAD,2024-05-27 14:09:51,14.9832571,0.0002956,69.9994,206.1425,268.1934,91.8887,0.00012915,1.448e-05,0.0,0 STARLINK-5265,1 55317U 23010BA  24148.59018190  .00001448  00000-0  12915-3 0  9997,2 55317  69.9994 206.1425 0002956 268.1934  91.8887 14.98325710 77111,6950.206,96.107,574.126,570.017,0.0
55317.0,STARLINK-5265,PAYLOAD,2024-05-28 04:35:04,14.9833317,0.000291,69.9994,204.6276,268.7577,91.3249,2.2761e-05,1.79e-06,0.0,0 STARLINK-5265,1 55317U 23010BA  24149.19102053  .00000179  00000-0  22761-4 0  9997,2 55317  69.9994 204.6276 0002910 268.7577  91.3249 14.98333170 76022,6950.183,96.107,574.071,570.026,0.0
55317.0,STARLINK-5265,PAYLOAD,2024-05-28 14:11:52,14.98333891,0.0002921,69.9994,203.6178,268.8557,91.2267,2.6323e-05,2.21e-06,0.0,0 STARLINK-5265,1 55317U 23010BA  24149.59157893  .00000221  00000-0  26323-4 0  9999,2 55317  69.9994 203.6178 0002921 268.8557  91.2267 14.98333891 77269,6950.181,96.107,574.076,570.016,0.0
55317.0,STARLINK-5265,PAYLOAD,2024-05-29 04:37:05,14.98330627,0.000288,69.9995,202.103,267.3702,92.7127,-8.9288e-06,-2e-06,0.0,0 STARLINK-5265,1 55317U 23010BA  24150.19242067 -.00000200  00000-0 -89288-5 0  9994,2 55317  69.9995 202.1030 0002880 267.3702  92.7127 14.98330627 76175,6950.191,96.107,574.058,570.054,0.0
55317.0,STARLINK-5265,PAYLOAD,2024-05-29 12:37:45,14.9832946,0.0002906,69.9994,201.2615,267.0601,93.0226,-2.2116e-05,-3.57e-06,0.0,0 STARLINK-5265,1 55317U 23010BA  24150.52622159 -.00000357  00000-0 -22116-4 0  9994,2 55317  69.9994 201.2615 0002906 267.0601  93.0226 14.98329460 77401,6950.195,96.107,574.079,570.04,0.0
55317.0,STARLINK-5265,PAYLOAD,2024-05-30 04:39:05,14.98332064,0.0002948,69.9993,199.5784,267.4077,92.6744,-1.0735e-05,-2.21e-06,0.0,0 STARLINK-5265,1 55317U 23010BA  24151.19381873 -.00000221  00000-0 -10735-4 0  9997,2 55317  69.9993 199.5784 0002948 267.4077  92.6744 14.98332064 76327,6950.187,96.107,574.1,570.003,0.0
55317.0,STARLINK-5265,PAYLOAD,2024-05-30 12:39:46,14.98332468,0.0002941,69.9992,198.7368,266.7431,93.3391,-3.0722e-06,-1.3e-06,0.0,0 STARLINK-5265,1 55317U 23010BA  24151.52761779 -.00000130  00000-0 -30722-5 0  9999,2 55317  69.9992 198.7368 0002941 266.7431  93.3391 14.98332468 77554,6950.185,96.107,574.094,570.006,0.0
55317.0,STARLINK-5265,PAYLOAD,2024-05-31 04:41:07,14.98327363,0.0002918,69.9991,197.0538,265.0446,95.038,6.32e-06,-1.8e-07,0.0,0 STARLINK-5265,1 55317U 23010BA  24152.19522024 -.00000018  00000-0  63200-5 0  9992,2 55317  69.9991 197.0538 0002918 265.0446  95.0380 14.98327363 76471,6950.201,96.107,574.094,570.038,0.0
55317.0,STARLINK-5265,PAYLOAD,2024-05-31 12:41:47,14.98327235,0.0002914,69.9991,196.2122,264.3897,95.693,4.6014e-06,-3.8e-07,0.0,0 STARLINK-5265,1 55317U 23010BA  24152.52902082 -.00000038  00000-0  46014-5 0  9991,2 55317  69.9991 196.2122 0002914 264.3897  95.6930 14.98327235 77701,6950.201,96.107,574.092,570.041,0.0
55317.0,STARLINK-5265,PAYLOAD,2024-05-31 20:42:27,14.98329871,0.0003062,69.9986,195.3692,269.9987,90.0822,-2.6282e-07,-9.6e-07,0.0,0 STARLINK-5265,1 55317U 23010BA  24152.86281937 -.00000096  00000-0 -26282-6 0  9998,2 55317  69.9986 195.3692 0003062 269.9987  90.0822 14.98329871 77755,6950.193,96.107,574.186,569.93,0.0
55317.0,STARLINK-5265,PAYLOAD,2024-06-01 04:43:07,14.98330734,0.0003082,69.9984,194.5273,269.619,90.4616,2.5973e-05,2.17e-06,0.0,0 STARLINK-5265,1 55317U 23010BA  24153.19661773  .00000217  00000-0  25973-4 0  9992,2 55317  69.9984 194.5273 0003082 269.6190  90.4616 14.98330734 76624,6950.191,96.107,574.198,569.914,0.0
55317.0,STARLINK-5265,PAYLOAD,2024-06-01 12:43:47,14.9833308,0.0003056,69.9984,193.6853,268.5505,91.5304,2.4165e-05,1.95e-06,0.0,0 STARLINK-5265,1 55317U 23010BA  24153.53041590  .00000195  00000-0  24165-4 0  9996,2 55317  69.9984 193.6853 0003056 268.5505  91.5304 14.98333080 77856,6950.183,96.107,574.172,569.924,0.0
55317.0,STARLINK-5265,PAYLOAD,2024-06-02 04:45:08,14.98329211,0.0003013,69.9985,192.0022,269.4208,90.6606,3.9644e-05,3.8e-06,0.0,0 STARLINK-5265,1 55317U 23010BA  24154.19801740  .00000380  00000-0  39644-4 0  9994,2 55317  69.9985 192.0022 0003013 269.4208  90.6606 14.98329211 76777,6950.195,96.107,574.154,569.966,0.0
55317.0,STARLINK-5265,PAYLOAD,2024-06-02 11:09:40,14.98328873,0.0002936,69.9989,191.33,267.9564,92.1259,4.2845e-05,4.18e-06,0.0,0 STARLINK-5265,1 55317U 23010BA  24154.46505778  .00000418  00000-0  42845-4 0  9995,2 55317  69.9989 191.3300 0002936 267.9564  92.1259 14.98328873 77992,6950.196,96.107,574.102,570.021,0.0
55317.0,STARLINK-5265,PAYLOAD,2024-06-03 04:47:09,14.98339339,0.0002804,69.9985,189.4776,269.481,90.6028,-9.6727e-05,-1.247e-05,0.0,0 STARLINK-5265,1 55317U 23010BA  24155.19941414 -.00001247  00000-0 -96727-4 0  9998,2 55317  69.9985 189.4776 0002804 269.4810  90.6028 14.98339339 76926,6950.164,96.106,573.978,570.08,0.0
55317.0,STARLINK-5265,PAYLOAD,2024-06-03 11:11:41,14.98329668,0.0002744,69.9989,188.8052,270.4642,89.6203,9.5338e-05,1.045e-05,0.0,0 STARLINK-5265,1 55317U 23010BA  24155.46645470  .00001045  00000-0  95338-4 0  9992,2 55317  69.9989 188.8052 0002744 270.4642  89.6203 14.98329668 78141,6950.194,96.107,573.966,570.152,0.0
